GLOBALSTAR M075         
1 37192U 10054E   24155.25869388 -.00000090  00000+0  74615-4 0  9994
2 37192  51.9948 255.2901 0000661 136.1010 242.2197 12.62275051628520
GLOBALSTAR M083         
1 37739U 11033A   24155.21117823 -.00000118  00000+0 -81076-4 0  9996
2 37739  51.9853 118.2124 0000467  64.5371  37.8848 12.62270098599350
GLOBALSTAR M088         
1 37740U 11033B   24154.87439368 -.00000085  00000+0  10463-3 0  9993
2 37740  51.9758  25.0487 0000909  85.7653  45.7728 12.62263792594490
GLOBALSTAR M091         
1 37741U 11033C   24154.97425144 -.00000083  00000+0  11812-3 0  9999
2 37741  52.0015 347.6238 0001163 102.8197  61.5003 12.62263262595555
GLOBALSTAR M085         
1 37742U 11033D   24154.63678687 -.00000094  00000+0  54863-4 0  9991
2 37742  51.9878 300.0236 0001032 118.9525  12.3464 12.62271552595769
GLOBALSTAR M081         
1 37743U 11033E   24154.58235957 -.00000094  00000+0  55054-4 0  9998
2 37743  51.9971 302.7435 0000968 127.5435 355.4401 12.62265542595907
